BEIJING 1               
1 28890U 05043A   22249.60513022  .00000229  00000+0  55674-4 0  9990
2 28890  98.1274  10.5572 0013933 280.9346  79.0289 14.61484901898997
HJ-1A                   
1 33320U 08041A   22249.46445289  .00000619  00000+0  92582-4 0  9990
2 33320  97.6735 278.7076 0020169 332.1999  27.8130 14.77904103754352
HJ-1B                   
1 33321U 08041B   22249.41511127  .00000922  00000+0  13395-3 0  9992
2 33321  97.6906 282.3888 0033845 349.5644  10.4859 14.77851296754348
YAOGAN 4                
1 33446U 08061A   22249.37927322  .00000479  00000+0  74168-4 0  9998
2 33446  97.8198 187.0609 0015004 229.0978 130.8934 14.77449522741546
DEIMOS-1                
1 35681U 09041A   22249.55541919  .00000761  00000+0  12837-3 0  9992
2 35681  97.7070  96.4396 0001224  25.6808 334.4478 14.72100817703701
UK-DMC 2                
1 35683U 09041C   22249.47993880  .00000464  00000+0  82150-4 0  9999
2 35683  97.7058  58.1982 0001473  77.8207 282.3164 14.71477446703429
RISAT 1                 
1 38248U 12017A   22249.52640555  .00003439  00000+0  20207-3 0  9999
2 38248  97.5534 260.0248 0003694   7.4965 352.6320 15.12360092571075
DMC3-FM1                
1 40715U 15032A   22249.47936553  .00000007  00000+0  74479-5 0  9991
2 40715  97.8345 134.6641 0004528 253.9720 106.0995 14.82178079385291
DMC3-FM2                
1 40716U 15032B   22249.43477561  .00000662  00000+0  89577-4 0  9998
2 40716  97.8386 135.3033 0006527 254.9731 105.0748 14.82171585385294
DMC3-FM3                
1 40717U 15032C   22249.45634412  .00001043  00000+0  13734-3 0  9996
2 40717  97.8423 136.2709 0008481 253.5460 106.4815 14.82201497385298
